{
  "type": "FeatureCollection",
  "features": [
    {
      "type": "Feature",
      "properties": {
        "norad_id": 29945,
        "name": "FENGYUN 1C DEB",
        "group": "fengyun-1c-debris",
        "lat": -81.08745533614753,
        "lon": 120.94466294449167,
        "alt_km": 871.165422180733,
        "timestamp": "2025-12-24T07:45:06.472148+00:00",
        "meta_object_name": "FENGYUN 1C DEB",
        "meta_object_id": "1999-025JT",
        "meta_epoch": "2025-12-23T23:54:46.934784",
        "meta_mean_motion": 14.05578404,
        "meta_eccentricity": 0.00303981,
        "meta_inclination": 98.7911,
        "meta_ra_of_asc_node": 21.2996,
        "meta_arg_of_pericenter": 330.5867,
        "meta_mean_anomaly": 86.4933,
        "meta_ephemeris_type": 0,
        "meta_classification_type": "U",
        "meta_norad_cat_id": 29945,
        "meta_element_set_no": 999,
        "meta_rev_at_epoch": 97136,
        "meta_bstar": 0.00014419721,
        "meta_mean_motion_dot": 1.93e-06,
        "meta_mean_motion_ddot": 0,
        "tle_line1": "1 29945U 99025JT  25357.99637656  .00000193  00000+0  14420-3 0  9993",
        "tle_line2": "2 29945  98.7911  21.2996 0030398 330.5867  86.4933 14.05578404971367"
      },
      "geometry": {
        "type": "Point",
        "coordinates": [
          120.94466294449167,
          -81.08745533614753
        ]
      }
    },
    {
      "type": "Feature",
      "properties": {
        "norad_id": 29946,
        "name": "FENGYUN 1C DEB",
        "group": "fengyun-1c-debris",
        "lat": 42.445077713445635,
        "lon": -17.874376604122567,
        "alt_km": 863.8048342788061,
        "timestamp": "2025-12-24T07:45:06.472158+00:00",
        "meta_object_name": "FENGYUN 1C DEB",
        "meta_object_id": "1999-025JU",
        "meta_epoch": "2025-12-23T21:38:08.208960",
        "meta_mean_motion": 14.08264862,
        "meta_eccentricity": 0.00801873,
        "meta_inclination": 98.7806,
        "meta_ra_of_asc_node": 349.8417,
        "meta_arg_of_pericenter": 311.8807,
        "meta_mean_anomaly": 114.5993,
        "meta_ephemeris_type": 0,
        "meta_classification_type": "U",
        "meta_norad_cat_id": 29946,
        "meta_element_set_no": 999,
        "meta_rev_at_epoch": 97204,
        "meta_bstar": 0.0002141593,
        "meta_mean_motion_dot": 3.33e-06,
        "meta_mean_motion_ddot": 0,
        "tle_line1": "1 29946U 99025JU  25357.90148390  .00000333  00000+0  21416-3 0  9996",
        "tle_line2": "2 29946  98.7806 349.8417 0080187 311.8807 114.5993 14.08264862972043"
      },
      "geometry": {
        "type": "Point",
        "coordinates": [
          -17.874376604122567,
          42.445077713445635
        ]
      }
    },
    {
      "type": "Feature",
      "properties": {
        "norad_id": 29947,
        "name": "FENGYUN 1C DEB",
        "group": "fengyun-1c-debris",
        "lat": 12.965091137679554,
        "lon": -149.4088874036652,
        "alt_km": 877.7867434820018,
        "timestamp": "2025-12-24T07:45:06.472169+00:00",
        "meta_object_name": "FENGYUN 1C DEB",
        "meta_object_id": "1999-025JV",
        "meta_epoch": "2025-12-23T21:17:28.152960",
        "meta_mean_motion": 14.03081691,
        "meta_eccentricity": 0.00410439,
        "meta_inclination": 98.8368,
        "meta_ra_of_asc_node": 28.1155,
        "meta_arg_of_pericenter": 90.1727,
        "meta_mean_anomaly": 35.7783,
        "meta_ephemeris_type": 0,
        "meta_classification_type": "U",
        "meta_norad_cat_id": 29947,
        "meta_element_set_no": 999,
        "meta_rev_at_epoch": 96906,
        "meta_bstar": 0.00024271751,
        "meta_mean_motion_dot": 3.38e-06,
        "meta_mean_motion_ddot": 0,
        "tle_line1": "1 29947U 99025JV  25357.88713140  .00000338  00000+0  24272-3 0  9993",
        "tle_line2": "2 29947  98.8368  28.1155 0041043  90.1727  35.7783 14.03081691969061"
      },
      "geometry": {
        "type": "Point",
        "coordinates": [
          -149.4088874036652,
          12.965091137679554
        ]
      }
    },
    {
      "type": "Feature",
      "properties": {
        "norad_id": 29948,
        "name": "FENGYUN 1C DEB",
        "group": "fengyun-1c-debris",
        "lat": 17.679384918486043,
        "lon": 167.04535762748705,
        "alt_km": 825.0234398871626,
        "timestamp": "2025-12-24T07:45:06.472231+00:00",
        "meta_object_name": "FENGYUN 1C DEB",
        "meta_object_id": "1999-025JW",
        "meta_epoch": "2025-12-23T19:35:59.157024",
        "meta_mean_motion": 14.0619753,
        "meta_eccentricity": 0.00841164,
        "meta_inclination": 98.8251,
        "meta_ra_of_asc_node": 343.7135,
        "meta_arg_of_pericenter": 202.2286,
        "meta_mean_anomaly": 278.5632,
        "meta_ephemeris_type": 0,
        "meta_classification_type": "U",
        "meta_norad_cat_id": 29948,
        "meta_element_set_no": 999,
        "meta_rev_at_epoch": 97132,
        "meta_bstar": -1.814356e-05,
        "meta_mean_motion_dot": -7.4e-07,
        "meta_mean_motion_ddot": 0,
        "tle_line1": "1 29948U 99025JW  25357.81665691 -.00000074  00000+0 -18144-4 0  9995",
        "tle_line2": "2 29948  98.8251 343.7135 0084116 202.2286 278.5632 14.06197530971326"
      },
      "geometry": {
        "type": "Point",
        "coordinates": [
          167.04535762748705,
          17.679384918486043
        ]
      }
    },
    {
      "type": "Feature",
      "properties": {
        "norad_id": 29949,
        "name": "FENGYUN 1C DEB",
        "group": "fengyun-1c-debris",
        "lat": 37.59549996158051,
        "lon": -159.53532238120766,
        "alt_km": 878.1122101792098,
        "timestamp": "2025-12-24T07:45:06.472244+00:00",
        "meta_object_name": "FENGYUN 1C DEB",
        "meta_object_id": "1999-025JX",
        "meta_epoch": "2025-12-23T22:52:17.973984",
        "meta_mean_motion": 14.06828314,
        "meta_eccentricity": 0.00230218,
        "meta_inclination": 98.7616,
        "meta_ra_of_asc_node": 13.2866,
        "meta_arg_of_pericenter": 272.653,
        "meta_mean_anomaly": 156.4616,
        "meta_ephemeris_type": 0,
        "meta_classification_type": "U",
        "meta_norad_cat_id": 29949,
        "meta_element_set_no": 999,
        "meta_rev_at_epoch": 97265,
        "meta_bstar": -6.1710323e-05,
        "meta_mean_motion_dot": -1.46e-06,
        "meta_mean_motion_ddot": 0,
        "tle_line1": "1 29949U 99025JX  25357.95298581 -.00000146  00000+0 -61710-4 0  9998",
        "tle_line2": "2 29949  98.7616  13.2866 0023021 272.6530 156.4616 14.06828314972656"
      },
      "geometry": {
        "type": "Point",
        "coordinates": [
          -159.53532238120766,
          37.59549996158051
        ]
      }
    },
    {
      "type": "Feature",
      "properties": {
        "norad_id": 29950,
        "name": "FENGYUN 1C DEB",
        "group": "fengyun-1c-debris",
        "lat": 55.6357421768688,
        "lon": -137.9233730954842,
        "alt_km": 850.8636300879425,
        "timestamp": "2025-12-24T07:45:06.472255+00:00",
        "meta_object_name": "FENGYUN 1C DEB",
        "meta_object_id": "1999-025JY",
        "meta_epoch": "2025-12-23T20:04:05.393856",
        "meta_mean_motion": 14.1033897,
        "meta_eccentricity": 0.00327303,
        "meta_inclination": 98.7398,
        "meta_ra_of_asc_node": 28.6028,
        "meta_arg_of_pericenter": 210.0235,
        "meta_mean_anomaly": 323.3534,
        "meta_ephemeris_type": 0,
        "meta_classification_type": "U",
        "meta_norad_cat_id": 29950,
        "meta_element_set_no": 999,
        "meta_rev_at_epoch": 97447,
        "meta_bstar": 0.00014629926,
        "meta_mean_motion_dot": 2.18e-06,
        "meta_mean_motion_ddot": 0,
        "tle_line1": "1 29950U 99025JY  25357.83617354  .00000218  00000+0  14630-3 0  9996",
        "tle_line2": "2 29950  98.7398  28.6028 0032730 210.0235 323.3534 14.10338970974475"
      },
      "geometry": {
        "type": "Point",
        "coordinates": [
          -137.9233730954842,
          55.6357421768688
        ]
      }
    },
    {
      "type": "Feature",
      "properties": {
        "norad_id": 29953,
        "name": "FENGYUN 1C DEB",
        "group": "fengyun-1c-debris",
        "lat": 39.5877662427733,
        "lon": 172.28136502994823,
        "alt_km": 928.518305470735,
        "timestamp": "2025-12-24T07:45:06.472266+00:00",
        "meta_object_name": "FENGYUN 1C DEB",
        "meta_object_id": "1999-025KB",
        "meta_epoch": "2025-12-23T11:09:06.516000",
        "meta_mean_motion": 13.90858176,
        "meta_eccentricity": 0.01056274,
        "meta_inclination": 98.9385,
        "meta_ra_of_asc_node": 343.9777,
        "meta_arg_of_pericenter": 237.1589,
        "meta_mean_anomaly": 288.381,
        "meta_ephemeris_type": 0,
        "meta_classification_type": "U",
        "meta_norad_cat_id": 29953,
        "meta_element_set_no": 999,
        "meta_rev_at_epoch": 96011,
        "meta_bstar": 0.00031135948,
        "meta_mean_motion_dot": 3.65e-06,
        "meta_mean_motion_ddot": 0,
        "tle_line1": "1 29953U 99025KB  25357.46465875  .00000365  00000+0  31136-3 0  9990",
        "tle_line2": "2 29953  98.9385 343.9777 0105627 237.1589 288.3810 13.90858176960113"
      },
      "geometry": {
        "type": "Point",
        "coordinates": [
          172.28136502994823,
          39.5877662427733
        ]
      }
    }
  ]
}